STARLINK-30113
1 56291U 23056F   26061.16668981  .01421796  00000+0  69743-1 0  9998
2 56291  43.0005 250.6052 0000878 269.9348 272.9692 15.14338270  5670
STARLINK-30230
1 57503U 23113J   26061.16668981  .01194369  00000+0  58634-1 0  9999
2 57503  42.9996  57.7049 0001779 278.4821 111.5874 15.14350838  5818
STARLINK-30836
1 58221U 23170R   26061.16668981  .01264913  00000+0  62623-1 0  9996
2 58221  42.9992 236.0733 0001529 294.5411 160.5610 15.14365651  5812
